NORAD_CAT_ID,OBJECT_NAME,OBJECT_TYPE,EPOCH,MEAN_MOTION,ECCENTRICITY,INCLINATION,RA_OF_ASC_NODE,ARG_OF_PERICENTER,MEAN_ANOMALY,BSTAR,MEAN_MOTION_DOT,MEAN_MOTION_DDOT,TLE_LINE0,TLE_LINE1,TLE_LINE2,SEMIMAJOR_AXIS,PERIOD,APOGEE,PERIGEE,DECAYED
53995.0,STARLINK-5097,PAYLOAD,2023-12-24 22:46:19,15.08841189,0.0001512,53.217,231.1982,106.723,253.3928,9.9789e-05,1.301e-05,0.0,0 STARLINK-5097,1 53995U 22125AH  23358.94883174  .00001301  00000-0  99789-4 0  9999,2 53995  53.2170 231.1982 0001512 106.7230 253.3928 15.08841189 67892,6917.877,95.437,540.788,538.696,0.0
53995.0,STARLINK-5097,PAYLOAD,2023-12-25 19:26:20,15.08834985,0.0001291,53.2153,227.3316,100.097,260.0167,6.0681e-05,6.78e-06,0.0,0 STARLINK-5097,1 53995U 22125AH  23359.80995817  .00000678  00000-0  60681-4 0  9998,2 53995  53.2153 227.3316 0001291 100.0970 260.0167 15.08834985 68025,6917.896,95.438,540.654,538.868,0.0
53995.0,STARLINK-5097,PAYLOAD,2023-12-25 21:01:43,15.08836681,0.0001317,53.2154,227.0344,90.4346,269.6797,7.6802e-05,9.35e-06,0.0,0 STARLINK-5097,1 53995U 22125AH  23359.87619720  .00000935  00000-0  76802-4 0  9999,2 53995  53.2154 227.0344 0001317  90.4346 269.6797 15.08836681 67952,6917.891,95.438,540.667,538.844,0.0
53995.0,STARLINK-5097,PAYLOAD,2023-12-26 01:47:52,15.08841247,0.0001369,53.2154,226.1409,101.7881,258.3264,0.00011001,1.463e-05,0.0,0 STARLINK-5097,1 53995U 22125AH  23360.07491314  .00001463  00000-0  11001-3 0  9996,2 53995  53.2154 226.1409 0001369 101.7881 258.3264 15.08841247 68062,6917.877,95.437,540.689,538.795,0.0
53995.0,STARLINK-5097,PAYLOAD,2023-12-26 19:17:08,15.08780825,0.0001815,53.216,222.8674,99.1395,260.9802,0.00082772,0.00012888,0.0,0 STARLINK-5097,1 53995U 22125AH  23360.80357382  .00012888  00000-0  82772-3 0  9999,2 53995  53.2160 222.8674 0001815  99.1395 260.9802 15.08780825 68175,6918.061,95.441,541.182,538.671,0.0
53995.0,STARLINK-5097,PAYLOAD,2023-12-26 20:52:30,15.08838229,0.0001387,53.2158,222.5709,104.8727,255.2419,1.0192e-06,-2.72e-06,0.0,0 STARLINK-5097,1 53995U 22125AH  23360.86979915 -.00000272  00000-0  10192-5 0  9991,2 53995  53.2158 222.5709 0001387 104.8727 255.2419 15.08838229 68101,6917.886,95.438,540.71,538.791,0.0
53995.0,STARLINK-5097,PAYLOAD,2023-12-27 00:03:17,15.08827603,0.0001525,53.2163,221.9746,111.0207,249.0948,0.00022518,3.296e-05,0.0,0 STARLINK-5097,1 53995U 22125AH  23361.00228080  .00003296  00000-0  22518-3 0  9999,2 53995  53.2163 221.9746 0001525 111.0207 249.0948 15.08827603 68201,6917.918,95.438,540.838,538.728,0.0
53995.0,STARLINK-5097,PAYLOAD,2023-12-27 19:07:54,15.08841357,0.0001412,53.2168,218.4054,104.8653,255.2495,5.6657e-05,6.14e-06,0.0,0 STARLINK-5097,1 53995U 22125AH  23361.79715684  .00000614  00000-0  56657-4 0  9999,2 53995  53.2168 218.4054 0001412 104.8653 255.2495 15.08841357 68320,6917.876,95.437,540.718,538.764,0.0
53995.0,STARLINK-5097,PAYLOAD,2023-12-27 20:43:17,15.08842651,0.0001438,53.2166,218.1084,98.9863,261.1292,6.4369e-05,7.37e-06,0.0,0 STARLINK-5097,1 53995U 22125AH  23361.86339578  .00000737  00000-0  64369-4 0  9996,2 53995  53.2166 218.1084 0001438  98.9863 261.1292 15.08842651 68253,6917.872,95.437,540.732,538.742,0.0
53995.0,STARLINK-5097,PAYLOAD,2023-12-28 12:37:08,15.08838166,0.0001528,53.2166,215.1327,112.1961,247.9193,4.3768e-05,4.09e-06,0.0,0 STARLINK-5097,1 53995U 22125AH  23362.52579842  .00000409  00000-0  43768-4 0  9996,2 53995  53.2166 215.1327 0001528 112.1961 247.9193 15.08838166 68357,6917.886,95.438,540.808,538.694,0.0
53995.0,STARLINK-5097,PAYLOAD,2023-12-28 20:34:04,15.08837933,0.0001424,53.2164,213.6422,103.2923,256.8228,3.8561e-05,3.26e-06,0.0,0 STARLINK-5097,1 53995U 22125AH  23362.85699852  .00000326  00000-0  38561-4 0  9999,2 53995  53.2164 213.6422 0001424 103.2923 256.8228 15.08837933 68403,6917.887,95.438,540.737,538.767,0.0
53995.0,STARLINK-5097,PAYLOAD,2023-12-29 18:49:28,15.08845294,0.0001538,53.2165,209.4832,115.0953,245.0198,6.1271e-05,6.87e-06,0.0,0 STARLINK-5097,1 53995U 22125AH  23363.78435233  .00000687  00000-0  61271-4 0  9997,2 53995  53.2165 209.4832 0001538 115.0953 245.0198 15.08845294 68621,6917.864,95.437,540.793,538.665,0.0
53995.0,STARLINK-5097,PAYLOAD,2023-12-29 20:24:51,15.08846082,0.0001532,53.2163,209.1861,114.1501,245.9652,6.6652e-05,7.73e-06,0.0,0 STARLINK-5097,1 53995U 22125AH  23363.85059131  .00000773  00000-0  66652-4 0  9998,2 53995  53.2163 209.1861 0001532 114.1501 245.9652 15.08846082 68553,6917.862,95.437,540.787,538.667,0.0
53995.0,STARLINK-5097,PAYLOAD,2023-12-30 18:40:15,15.08839483,0.0001351,53.2157,205.0262,90.5518,269.5629,5.3436e-05,5.63e-06,0.0,0 STARLINK-5097,1 53995U 22125AH  23364.77795646  .00000563  00000-0  53436-4 0  9991,2 53995  53.2157 205.0262 0001351  90.5518 269.5629 15.08839483 68777,6917.882,95.438,540.682,538.812,0.0
53995.0,STARLINK-5097,PAYLOAD,2023-12-30 20:15:38,15.08839696,0.0001354,53.2157,204.7288,90.264,269.8507,5.243e-05,5.47e-06,0.0,0 STARLINK-5097,1 53995U 22125AH  23364.84419586  .00000547  00000-0  52430-4 0  9990,2 53995  53.2157 204.7288 0001354  90.2640 269.8507 15.08839696 68704,6917.881,95.438,540.683,538.81,0.0
53995.0,STARLINK-5097,PAYLOAD,2023-12-31 20:06:25,15.08840378,0.0001364,53.2158,200.2675,92.1578,267.957,-1.5024e-06,-3.12e-06,0.0,0 STARLINK-5097,1 53995U 22125AH  23365.83779683 -.00000312  00000-0 -15024-5 0  9998,2 53995  53.2158 200.2675 0001364  92.1578 267.9570 15.08840378 68931,6917.879,95.438,540.688,538.801,0.0
53995.0,STARLINK-5097,PAYLOAD,2024-01-01 13:35:40,15.08835597,0.0001349,53.2156,196.9969,90.2764,269.8382,8.2206e-06,-1.57e-06,0.0,0 STARLINK-5097,1 53995U 22125AH  24001.56644025 -.00000157  00000-0  82206-5 0  9999,2 53995  53.2156 196.9969 0001349  90.2764 269.8382 15.08835597 68967,6917.894,95.438,540.692,538.826,0.0
53995.0,STARLINK-5097,PAYLOAD,2024-01-01 18:21:49,15.08835106,0.0001319,53.2157,196.1046,95.563,264.5513,-9.5582e-07,-3.03e-06,0.0,0 STARLINK-5097,1 53995U 22125AH  24001.76516105 -.00000303  00000-0 -95582-6 0  9994,2 53995  53.2157 196.1046 0001319  95.5630 264.5513 15.08835106 69070,6917.895,95.438,540.673,538.848,0.0
53995.0,STARLINK-5097,PAYLOAD,2024-01-02 13:26:27,15.08838337,0.0001309,53.2158,192.5362,94.0367,266.0775,5.0015e-05,5.08e-06,0.0,0 STARLINK-5097,1 53995U 22125AH  24002.56003907  .00000508  00000-0  50015-4 0  9999,2 53995  53.2158 192.5362 0001309  94.0367 266.0775 15.08838337 69113,6917.885,95.438,540.656,538.845,0.0
53995.0,STARLINK-5097,PAYLOAD,2024-01-02 18:12:36,15.08839334,0.0001313,53.2157,191.6442,93.0656,267.0486,5.6438e-05,6.1e-06,0.0,0 STARLINK-5097,1 53995U 22125AH  24002.75875855  .00000610  00000-0  56438-4 0  9998,2 53995  53.2157 191.6442 0001313  93.0656 267.0486 15.08839334 69147,6917.882,95.438,540.656,538.839,0.0
53995.0,STARLINK-5097,PAYLOAD,2024-01-03 11:41:51,15.08836641,0.0001265,53.2158,188.3739,86.7647,273.349,5.6609e-05,6.13e-06,0.0,0 STARLINK-5097,1 53995U 22125AH  24003.48740115  .00000613  00000-0  56609-4 0  9992,2 53995  53.2158 188.3739 0001265  86.7647 273.3490 15.08836641 69339,6917.891,95.438,540.631,538.881,0.0
53995.0,STARLINK-5097,PAYLOAD,2024-01-03 19:38:47,15.08837113,0.0001281,53.2158,186.8865,89.2542,270.8597,5.119e-05,5.27e-06,0.0,0 STARLINK-5097,1 53995U 22125AH  24003.81860171  .00000527  00000-0  51190-4 0  9998,2 53995  53.2158 186.8865 0001281  89.2542 270.8597 15.08837113 69304,6917.889,95.438,540.64,538.868,0.0
53995.0,STARLINK-5097,PAYLOAD,2024-01-04 19:29:34,15.08839158,0.0001383,53.2162,182.4262,82.6367,277.4783,1.1852e-05,-9.9e-07,0.0,0 STARLINK-5097,1 53995U 22125AH  24004.81220344 -.00000099  00000-0  11852-4 0  9997,2 53995  53.2162 182.4262 0001383  82.6367 277.4783 15.08839158 69533,6917.883,95.438,540.705,538.791,0.0
53995.0,STARLINK-5097,PAYLOAD,2024-01-04 21:04:57,15.08839893,0.0001377,53.2162,182.1287,82.9847,277.1302,1.7878e-05,-3e-08,0.0,0 STARLINK-5097,1 53995U 22125AH  24004.87844272 -.00000003  00000-0  17878-4 0  9994,2 53995  53.2162 182.1287 0001377  82.9847 277.1302 15.08839893 69468,6917.881,95.438,540.698,538.793,0.0
53995.0,STARLINK-5097,PAYLOAD,2024-01-05 11:23:25,15.08839953,0.0001356,53.2163,179.4523,84.1209,275.9937,5.2597e-05,5.49e-06,0.0,0 STARLINK-5097,1 53995U 22125AH  24005.47460151  .00000549  00000-0  52597-4 0  9992,2 53995  53.2163 179.4523 0001356  84.1209 275.9937 15.08839953 69551,6917.881,95.438,540.684,538.807,0.0
53995.0,STARLINK-5097,PAYLOAD,2024-01-05 16:09:34,15.08841095,0.0001357,53.2163,178.5607,84.3542,275.7605,6.5998e-05,7.63e-06,0.0,0 STARLINK-5097,1 53995U 22125AH  24005.67332024  .00000763  00000-0  65998-4 0  9998,2 53995  53.2163 178.5607 0001357  84.3542 275.7605 15.08841095 69580,6917.877,95.437,540.681,538.803,0.0
53995.0,STARLINK-5097,PAYLOAD,2024-01-06 11:14:12,15.08841176,0.000138,53.2168,174.9937,78.611,281.5037,3.342e-05,2.44e-06,0.0,0 STARLINK-5097,1 53995U 22125AH  24006.46820174  .00000244  00000-0  33420-4 0  9993,2 53995  53.2168 174.9937 0001380  78.6110 281.5037 15.08841176 69780,6917.877,95.437,540.696,538.787,0.0
53995.0,STARLINK-5097,PAYLOAD,2024-01-06 16:00:22,15.08839405,0.0001331,53.2166,174.101,82.3488,277.7655,1.9322e-05,2e-07,0.0,0 STARLINK-5097,1 53995U 22125AH  24006.66692295  .00000020  00000-0  19322-4 0  9993,2 53995  53.2166 174.1010 0001331  82.3488 277.7655 15.08839405 69738,6917.882,95.438,540.668,538.826,0.0
53995.0,STARLINK-5097,PAYLOAD,2024-01-07 14:15:46,15.08840111,0.0001231,53.217,169.9382,77.4358,282.6772,1.0479e-05,-1.21e-06,0.0,0 STARLINK-5097,1 53995U 22125AH  24007.59428314 -.00000121  00000-0  10479-4 0  9992,2 53995  53.2170 169.9382 0001231  77.4358 282.6772 15.08840111 69873,6917.88,95.438,540.597,538.893,0.0
53995.0,STARLINK-5097,PAYLOAD,2024-01-07 17:26:32,15.08840927,0.0001297,53.2174,169.3434,85.6319,274.4821,1.6368e-05,-2.7e-07,0.0,0 STARLINK-5097,1 53995U 22125AH  24007.72676212 -.00000027  00000-0  16368-4 0  9997,2 53995  53.2174 169.3434 0001297  85.6319 274.4821 15.08840927 69979,6917.878,95.437,540.64,538.845,0.0
